{
  "type": "FeatureCollection",
  "hinweis": "ERFUNDEN. Dieses Netz ist ein Pruefstand fuer scripts/build-roads.mjs, kein Datensatz. Es behauptet nichts ueber roemische Strassen. Siehe data/roads/README.md.",
  "features": [
    {
      "type": "Feature",
      "properties": {
        "name": "Pruefstrecke A (erfunden): Jericho - Betanien",
        "hinweis": "erfunden, kein historischer Verlauf"
      },
      "geometry": {
        "type": "LineString",
        "coordinates": [
          [35.4450, 31.8720],
          [35.4200, 31.8600],
          [35.3950, 31.8450],
          [35.3700, 31.8150],
          [35.3450, 31.8320],
          [35.3200, 31.8200],
          [35.3000, 31.8050],
          [35.2850, 31.7900],
          [35.2700, 31.7780],
          [35.2560, 31.7720]
        ]
      }
    },
    {
      "type": "Feature",
      "properties": {
        "name": "Pruefstrecke B (erfunden): Abzweig nach Ephraim",
        "hinweis": "erfunden, kein historischer Verlauf"
      },
      "geometry": {
        "type": "MultiLineString",
        "coordinates": [
          [
            [35.3450, 31.8320],
            [35.3400, 31.8700],
            [35.3300, 31.9100],
            [35.3003, 31.9544]
          ]
        ]
      }
    },
    {
      "type": "Feature",
      "properties": {
        "name": "Pruefstrecke C (erfunden): Insel ohne Anschluss",
        "hinweis": "haengt an nichts – prueft, dass eine Station ohne Verbindung keinen Weg bekommt"
      },
      "geometry": {
        "type": "LineString",
        "coordinates": [
          [34.9000, 32.6000],
          [34.9100, 32.6100],
          [34.9200, 32.6200]
        ]
      }
    }
  ]
}
